[{"OBJECT_NAME":"STARLINK-1320","OBJECT_ID":"2020-025AT","EPOCH":"2026-03-09T22:25:05.757888","MEAN_MOTION":15.68740025,"ECCENTRICITY":0.00073169,"INCLINATION":53.0503,"RA_OF_ASC_NODE":344.5237,"ARG_OF_PERICENTER":58.0358,"MEAN_ANOMALY":302.1368,"EPHEMERIS_TYPE":0,"CLASSIFICATION_TYPE":"U","NORAD_CAT_ID":45572,"ELEMENT_SET_NO":999,"REV_AT_EPOCH":32684,"BSTAR":0.00068865274,"MEAN_MOTION_DOT":0.00080462,"MEAN_MOTION_DDOT":0},{"OBJECT_NAME":"STARLINK-11246 [DTC]","OBJECT_ID":"2024-155J","EPOCH":"2026-03-09T22:25:39.556704","MEAN_MOTION":15.69707649,"ECCENTRICITY":9.042e-5,"INCLINATION":53.1579,"RA_OF_ASC_NODE":339.8351,"ARG_OF_PERICENTER":131.6847,"MEAN_ANOMALY":228.4249,"EPHEMERIS_TYPE":0,"CLASSIFICATION_TYPE":"U","NORAD_CAT_ID":60932,"ELEMENT_SET_NO":999,"REV_AT_EPOCH":8844,"BSTAR":2.1882903e-5,"MEAN_MOTION_DOT":2.063e-5,"MEAN_MOTION_DDOT":0}]
